ICEYE-X40               
1 60549U 24149CK  26188.27526157  .00001474  00000+0  12961-3 0  9991
2 60549  97.6815 264.4365 0007884  21.5066 338.6487 14.98034354103081
ICEYE-X49               
1 62384U 24247H   26188.23650532  .00003067  00000+0  18212-3 0  9995
2 62384  44.9985 250.3138 0001185 237.5800 122.4963 15.13579428 85214
ICEYE-X47               
1 62389U 24247N   26188.47585066  .00002108  00000+0  13005-3 0  9995
2 62389  44.9954 248.6236 0002112 317.5108  42.5606 15.13464344 85255
ICEYE-X42               
1 62698U 25009CT  26187.72504743  .00001495  00000+0  15356-3 0  9994
2 62698  97.7389 265.6884 0001320  91.2261 268.9109 14.91850456 80200
ICEYE-X41               
1 62700U 25009CV  26187.65729297  .00002381  00000+0  21255-3 0  9993
2 62700  97.7069 266.9014 0001112  26.4033 333.7245 14.96886940 80321
ICEYE-X45               
1 62705U 25009DA  26188.19740468 -.00002128  00000+0 -16279-3 0  9992
2 62705  97.8378 275.0454 0001403  88.3331 271.8053 15.00828459 80685
ICEYE-X44               
1 62707U 25009DC  26188.15034809  .00002197  00000+0  20027-3 0  9995
2 62707  97.7044 266.9613 0002439  85.2282 274.9218 14.96134271102928
ICEYE-X48               
1 63253U 25052AV  26187.62758767  .00002380  00000+0  20603-3 0  9991
2 63253  97.6839  79.5172 0002964 124.3056 235.8447 14.98095409 71589
ICEYE-X50               
1 63255U 25052AX  26188.50067530  .00001524  00000+0  14335-3 0  9996
2 63255  97.6867  80.0041 0003080 117.8648 242.2886 14.95344810 71688
ICEYE-X51               
1 63257U 25052AZ  26188.52522220  .00002602  00000+0  20928-3 0  9995
2 63257  97.7595  83.5819 0002009  71.2795 288.8646 15.00869790 71851
ICEYE-X46               
1 63258U 25052BA  26187.69441439  .00001719  00000+0  16103-3 0  9993
2 63258  97.6861  79.2121 0001487  84.3155 275.8235 14.95342721 71560
ICEYE-X54               
1 64570U 25135AU  26188.51068885  .00001998  00000+0  18940-3 0  9995
2 64570  97.7733 302.7384 0001519 215.1940 144.9180 14.94702526 56935
ICEYE-X52               
1 64572U 25135AW  26188.57001459  .00001022  00000+0  10213-3 0  9990
2 64572  97.7758 302.5969 0000701 235.6368 124.4786 14.93633900 56926
ICEYE-X56               
1 64574U 25135AY  26188.57029692  .00001939  00000+0  17924-3 0  9994
2 64574  97.7756 303.3714 0000875 245.7765 114.3365 14.95732367 56973
ICEYE-X57               
1 64578U 25135BC  26188.40091140  .00003556  00000+0  28430-3 0  9998
2 64578  97.7998 304.9273 0002061  61.3889 298.7541 15.00872542 57050
ICEYE-X55               
1 64581U 25135BF  26188.57571858  .00002062  00000+0  19229-3 0  9996
2 64581  97.7753 303.2072 0001909 279.2088  80.8917 14.95330709 56966
